ONEWEB-0624             
1 55165U 23004AB  23277.58334491  .00037109  00000+0  10269+0 0  9995
2 55165  87.8988 186.7367 0002232  82.0703 163.9725 13.12451672  5324
ONEWEB-0625             
1 55166U 23004AC  23277.52035663  .00000011  00000+0 -37494-5 0  9997
2 55166  87.9229 201.9705 0002207  82.0235 278.1147 13.17645943 37640
ONEWEB-0626             
1 55167U 23004AD  23277.35583636  .00000026  00000+0  34759-4 0  9992
2 55167  87.9247 201.9899 0001721  58.7120 301.4180 13.17638729 37627
ONEWEB-0627             
1 55168U 23004AE  23277.50135943  .00000006  00000+0 -17000-4 0  9993
2 55168  87.9231 201.9791 0001267  95.9334 264.1942 13.17647847 37641
ONEWEB-0628             
1 55169U 23004AF  23277.74091218  .00033232  00000+0  92223-1 0  9999
2 55169  87.8994 186.7967 0002188 117.3946 242.7405 13.12282439 38647
ONEWEB-0629             
1 55170U 23004AG  23277.49505070  .00000072  00000+0  15288-3 0  9993
2 55170  87.9248 201.9630 0002102  91.4411 268.6961 13.17637075 37642
ONEWEB-0631             
1 55171U 23004AH  23277.91668981 -.00921605  00000+0 -53240+0 0  9994
2 55171  86.9835 175.4548 0004382  80.9242 333.5204 14.12079140 39399
ONEWEB-0709             
1 55172U 23004AJ  23277.76223482 -.00006325  00000+0 -17881-1 0  9997
2 55172  87.8989 217.0492 0002290  52.0645 308.0689 13.11463943 36593
